[
    {
        "Altitude(m)": 702713.7763898318,
        "Argument of Periapsis(deg)": 0.004556048474650827,
        "Eccentricity": 0.0,
        "Inclination(deg)": 45.0,
        "Latitude(deg)": 14.693241369837134,
        "Longitude(deg)": 159.82696100943946,
        "Mean Anomaly(deg)": 20.976886658992324,
        "RAAN(deg)": 244.99569922341675,
        "Satellite Name": "Constellation 1 1079",
        "Satellite Number": 1079,
        "Semi-Major Axis(m)": 7083131.272910544,
        "Time(s)": 76
    },
    {
        "Altitude(m)": 702715.0385848116,
        "Argument of Periapsis(deg)": 0.004615996480896233,
        "Eccentricity": 0.0,
        "Inclination(deg)": 45.0,
        "Latitude(deg)": 14.734945665200165,
        "Longitude(deg)": 159.8686618285434,
        "Mean Anomaly(deg)": 21.037587799242214,
        "RAAN(deg)": 244.9956426342512,
        "Satellite Name": "Constellation 1 1079",
        "Satellite Number": 1079,
        "Semi-Major Axis(m)": 7083131.272910544,
        "Time(s)": 77
    },
    {
        "Altitude(m)": 702716.3182666713,
        "Argument of Periapsis(deg)": 0.004675944487141638,
        "Eccentricity": 0.0,
        "Inclination(deg)": 45.0,
        "Latitude(deg)": 14.776640773475673,
        "Longitude(deg)": 159.91038009867654,
        "Mean Anomaly(deg)": 21.09828893949215,
        "RAAN(deg)": 244.9955860450856,
        "Satellite Name": "Constellation 1 1079",
        "Satellite Number": 1079,
        "Semi-Major Axis(m)": 7083131.272910544,
        "Time(s)": 78
    },
    {
        "Altitude(m)": 702717.615411867,
        "Argument of Periapsis(deg)": 0.004735892493387044,
        "Eccentricity": 0.0,
        "Inclination(deg)": 45.0,
        "Latitude(deg)": 14.818326663980033,
        "Longitude(deg)": 159.95211587413493,
        "Mean Anomaly(deg)": 21.158990079742036,
        "RAAN(deg)": 244.99552945592004,
        "Satellite Name": "Constellation 1 1079",
        "Satellite Number": 1079,
        "Semi-Major Axis(m)": 7083131.272910544,
        "Time(s)": 79
    },
    {
        "Altitude(m)": 702718.9299967764,
        "Argument of Periapsis(deg)": 0.004795840499632449,
        "Eccentricity": 0.0,
        "Inclination(deg)": 45.0,
        "Latitude(deg)": 14.86000330599549,
        "Longitude(deg)": 159.99386920924445,
        "Mean Anomaly(deg)": 21.219691219991923,
        "RAAN(deg)": 244.99547286675445,
        "Satellite Name": "Constellation 1 1079",
        "Satellite Number": 1079,
        "Semi-Major Axis(m)": 7083131.272910544,
        "Time(s)": 80
    },
    {
        "Altitude(m)": 702720.2619977028,
        "Argument of Periapsis(deg)": 0.004855788505877855,
        "Eccentricity": 0.0,
        "Inclination(deg)": 45.0,
        "Latitude(deg)": 14.901670668769956,
        "Longitude(deg)": 160.03564015836153,
        "Mean Anomaly(deg)": 21.28039236024181,
        "RAAN(deg)": 244.9954162775889,
        "Satellite Name": "Constellation 1 1079",
        "Satellite Number": 1079,
        "Semi-Major Axis(m)": 7083131.272910544,
        "Time(s)": 81
    },
    {
        "Altitude(m)": 702721.6113908907,
        "Argument of Periapsis(deg)": 0.00491573651212326,
        "Eccentricity": 0.0,
        "Inclination(deg)": 45.0,
        "Latitude(deg)": 14.943328721517224,
        "Longitude(deg)": 160.07742860777594,
        "Mean Anomaly(deg)": 21.341093500491745,
        "RAAN(deg)": 244.99535968842335,
        "Satellite Name": "Constellation 1 1079",
        "Satellite Number": 1079,
        "Semi-Major Axis(m)": 7083131.272910544,
        "Time(s)": 82
    },
    {
        "Altitude(m)": 702722.9781525023,
        "Argument of Periapsis(deg)": 0.004975684518368666,
        "Eccentricity": 0.0,
        "Inclination(deg)": 45.0,
        "Latitude(deg)": 14.984977433415752,
        "Longitude(deg)": 160.11923494809895,
        "Mean Anomaly(deg)": 21.40179464074163,
        "RAAN(deg)": 244.99530309925774,
        "Satellite Name": "Constellation 1 1079",
        "Satellite Number": 1079,
        "Semi-Major Axis(m)": 7083131.272910544,
        "Time(s)": 83
    },
    {
        "Altitude(m)": 702724.3622586312,
        "Argument of Periapsis(deg)": 0.005035632524614072,
        "Eccentricity": 0.0,
        "Inclination(deg)": 45.0,
        "Latitude(deg)": 15.026616773610158,
        "Longitude(deg)": 160.16105906568103,
        "Mean Anomaly(deg)": 21.462495780991517,
        "RAAN(deg)": 244.9952465100922,
        "Satellite Name": "Constellation 1 1079",
        "Satellite Number": 1079,
        "Semi-Major Axis(m)": 7083131.272910544,
        "Time(s)": 84
    },
    {
        "Altitude(m)": 702725.763685297,
        "Argument of Periapsis(deg)": 0.0050955805308594785,
        "Eccentricity": 0.0,
        "Inclination(deg)": 45.0,
        "Latitude(deg)": 15.06824671121009,
        "Longitude(deg)": 160.20290101500026,
        "Mean Anomaly(deg)": 21.523196921241453,
        "RAAN(deg)": 244.9951899209266,
        "Satellite Name": "Constellation 1 1079",
        "Satellite Number": 1079,
        "Semi-Major Axis(m)": 7083131.272910544,
        "Time(s)": 85
    },
    {
        "Altitude(m)": 702727.1824084569,
        "Argument of Periapsis(deg)": 0.005155528537104883,
        "Eccentricity": 0.0,
        "Inclination(deg)": 45.0,
        "Latitude(deg)": 15.109867215290324,
        "Longitude(deg)": 160.24476085056511,
        "Mean Anomaly(deg)": 21.583898061491343,
        "RAAN(deg)": 244.99513333176105,
        "Satellite Name": "Constellation 1 1079",
        "Satellite Number": 1079,
        "Semi-Major Axis(m)": 7083131.272910544,
        "Time(s)": 86
    },
    {
        "Altitude(m)": 702728.6184039856,
        "Argument of Periapsis(deg)": 0.0052154765433502885,
        "Eccentricity": 0.0,
        "Inclination(deg)": 45.0,
        "Latitude(deg)": 15.1514782548907,
        "Longitude(deg)": 160.2866386269147,
        "Mean Anomaly(deg)": 21.64459920174123,
        "RAAN(deg)": 244.9950767425955,
        "Satellite Name": "Constellation 1 1079",
        "Satellite Number": 1079,
        "Semi-Major Axis(m)": 7083131.272910544,
        "Time(s)": 87
    },
    {
        "Altitude(m)": 702730.0716477019,
        "Argument of Periapsis(deg)": 0.005275424549595694,
        "Eccentricity": 0.0,
        "Inclination(deg)": 45.0,
        "Latitude(deg)": 15.193079799015955,
        "Longitude(deg)": 160.32853439861836,
        "Mean Anomaly(deg)": 21.705300341991116,
        "RAAN(deg)": 244.9950201534299,
        "Satellite Name": "Constellation 1 1079",
        "Satellite Number": 1079,
        "Semi-Major Axis(m)": 7083131.272910544,
        "Time(s)": 88
    },
    {
        "Altitude(m)": 702731.5421153407,
        "Argument of Periapsis(deg)": 0.0053353725558411,
        "Eccentricity": 0.0,
        "Inclination(deg)": 45.0,
        "Latitude(deg)": 15.234671816635938,
        "Longitude(deg)": 160.3704480521792,
        "Mean Anomaly(deg)": 21.76600148224105,
        "RAAN(deg)": 244.9949635642643,
        "Satellite Name": "Constellation 1 1079",
        "Satellite Number": 1079,
        "Semi-Major Axis(m)": 7083131.272910544,
        "Time(s)": 89
    },
    {
        "Altitude(m)": 702733.0297825768,
        "Argument of Periapsis(deg)": 0.005395320562086505,
        "Eccentricity": 0.0,
        "Inclination(deg)": 45.0,
        "Latitude(deg)": 15.276254276684382,
        "Longitude(deg)": 160.41237997842214,
        "Mean Anomaly(deg)": 21.82670262249094,
        "RAAN(deg)": 244.99490697509876,
        "Satellite Name": "Constellation 1 1079",
        "Satellite Number": 1079,
        "Semi-Major Axis(m)": 7083131.272910544,
        "Time(s)": 90
    },
    {
        "Altitude(m)": 702734.5346249964,
        "Argument of Periapsis(deg)": 0.00545526856833191,
        "Eccentricity": 0.0,
        "Inclination(deg)": 45.0,
        "Latitude(deg)": 15.317827148060445,
        "Longitude(deg)": 160.45433006391133,
        "Mean Anomaly(deg)": 21.887403762740824,
        "RAAN(deg)": 244.9948503859332,
        "Satellite Name": "Constellation 1 1079",
        "Satellite Number": 1079,
        "Semi-Major Axis(m)": 7083131.272910544,
        "Time(s)": 91
    },
    {
        "Altitude(m)": 702736.0566181375,
        "Argument of Periapsis(deg)": 0.005515216574577317,
        "Eccentricity": 0.0,
        "Inclination(deg)": 45.0,
        "Latitude(deg)": 15.359390399627458,
        "Longitude(deg)": 160.49629836333867,
        "Mean Anomaly(deg)": 21.948104902990714,
        "RAAN(deg)": 244.99479379676765,
        "Satellite Name": "Constellation 1 1079",
        "Satellite Number": 1079,
        "Semi-Major Axis(m)": 7083131.272910544,
        "Time(s)": 92
    },
    {
        "Altitude(m)": 702737.5957374612,
        "Argument of Periapsis(deg)": 0.005575164580822722,
        "Eccentricity": 0.0,
        "Inclination(deg)": 45.0,
        "Latitude(deg)": 15.400944000213281,
        "Longitude(deg)": 160.53828493142677,
        "Mean Anomaly(deg)": 22.00880604324065,
        "RAAN(deg)": 244.9947372076021,
        "Satellite Name": "Constellation 1 1079",
        "Satellite Number": 1079,
        "Semi-Major Axis(m)": 7083131.272910544,
        "Time(s)": 93
    },
    {
        "Altitude(m)": 702739.1519583514,
        "Argument of Periapsis(deg)": 0.005635112587068129,
        "Eccentricity": 0.0,
        "Inclination(deg)": 45.0,
        "Latitude(deg)": 15.442487918609796,
        "Longitude(deg)": 160.58028982292888,
        "Mean Anomaly(deg)": 22.069507183490536,
        "RAAN(deg)": 244.99468061843646,
        "Satellite Name": "Constellation 1 1079",
        "Satellite Number": 1079,
        "Semi-Major Axis(m)": 7083131.272910544,
        "Time(s)": 94
    }
]